STARLINK-1621
1 46127U 20057L   26061.25002314  .00032629  00000+0  22285-3 0  9999
2 46127  53.0450 280.7679 0005854 185.0368 134.8286 15.74518040  5946
